{
    "CCSDS_OMM_VERS": "3.0",
    "COMMENT": "GENERATED VIA SPACE-TRACK.ORG API",
    "CREATION_DATE": "2025-11-23T21:08:43",
    "ORIGINATOR": "18 SPCS",
    "OBJECT_NAME": "BEIDOU 3 G3",
    "OBJECT_ID": "2020-040A",
    "CENTER_NAME": "EARTH",
    "REF_FRAME": "TEME",
    "TIME_SYSTEM": "UTC",
    "MEAN_ELEMENT_THEORY": "SGP4",
    "EPOCH": "2025-11-23T07:43:27.210144",
    "MEAN_MOTION": "1.00273178",
    "ECCENTRICITY": "0.00049350",
    "INCLINATION": "1.9416",
    "RA_OF_ASC_NODE": "66.4166",
    "ARG_OF_PERICENTER": "312.9398",
    "MEAN_ANOMALY": "269.6397",
    "EPHEMERIS_TYPE": "0",
    "CLASSIFICATION_TYPE": "U",
    "NORAD_CAT_ID": "45807",
    "ELEMENT_SET_NO": "999",
    "REV_AT_EPOCH": "2000",
    "BSTAR": "0.00000000000000",
    "MEAN_MOTION_DOT": "-0.00000333",
    "MEAN_MOTION_DDOT": "0.0000000000000",
    "SEMIMAJOR_AXIS": "42164.341",
    "PERIOD": "1436.077",
    "APOAPSIS": "35807.015",
    "PERIAPSIS": "35765.398",
    "OBJECT_TYPE": "PAYLOAD",
    "RCS_SIZE": "LARGE",
    "COUNTRY_CODE": "PRC",
    "LAUNCH_DATE": "2020-06-23",
    "SITE": "XSC",
    "DECAY_DATE": null,
    "FILE": "4896238",
    "GP_ID": "303334705",
    "TLE_LINE0": "0 BEIDOU 3 G3",
    "TLE_LINE1": "1 45807U 20040A   25327.32184271 -.00000333  00000-0  00000-0 0  9997",
    "TLE_LINE2": "2 45807   1.9416  66.4166 0004935 312.9398 269.6397  1.00273178 20005"
}